[{"OBJECT_NAME":"OBJECT E","OBJECT_ID":"2024-092E","EPOCH":"2026-03-09T21:25:47.709120","MEAN_MOTION":15.32997986,"ECCENTRICITY":0.0008531,"INCLINATION":97.642,"RA_OF_ASC_NODE":198.2099,"ARG_OF_PERICENTER":142.2606,"MEAN_ANOMALY":217.9236,"EPHEMERIS_TYPE":0,"CLASSIFICATION_TYPE":"U","NORAD_CAT_ID":59777,"ELEMENT_SET_NO":999,"REV_AT_EPOCH":10051,"BSTAR":0.00078641119,"MEAN_MOTION_DOT":0.00025066,"MEAN_MOTION_DDOT":0},{"OBJECT_NAME":"STARLINK-36177","OBJECT_ID":"2025-286H","EPOCH":"2026-03-09T05:54:12.767040","MEAN_MOTION":15.30198768,"ECCENTRICITY":9.815e-5,"INCLINATION":53.1601,"RA_OF_ASC_NODE":0.8802,"ARG_OF_PERICENTER":65.1436,"MEAN_ANOMALY":294.9667,"EPHEMERIS_TYPE":0,"CLASSIFICATION_TYPE":"U","NORAD_CAT_ID":66932,"ELEMENT_SET_NO":999,"REV_AT_EPOCH":1534,"BSTAR":0.00048089102,"MEAN_MOTION_DOT":0.0001391,"MEAN_MOTION_DDOT":0}]
